FENGYUN 1C DEB          
1 30360U 99025ABX 17345.91437765  .00000637  00000-0  36544-3 0  9990
2 30360  98.9846  22.6677 0038311 196.0432 288.7603 14.12678868560500
